[{"OBJECT_NAME":"STARLINK-6306","OBJECT_ID":"2023-094AA","EPOCH":"2026-03-09T22:00:01.999584","MEAN_MOTION":15.05016209,"ECCENTRICITY":2.579e-5,"INCLINATION":43.0016,"RA_OF_ASC_NODE":16.5352,"ARG_OF_PERICENTER":254.0128,"MEAN_ANOMALY":296.2187,"EPHEMERIS_TYPE":0,"CLASSIFICATION_TYPE":"U","NORAD_CAT_ID":57242,"ELEMENT_SET_NO":999,"REV_AT_EPOCH":562,"BSTAR":0.001881778,"MEAN_MOTION_DOT":0.00027056,"MEAN_MOTION_DDOT":0},{"OBJECT_NAME":"OBJECT E","OBJECT_ID":"2025-292E","EPOCH":"2026-03-09T23:06:13.350528","MEAN_MOTION":15.05603019,"ECCENTRICITY":0.00142209,"INCLINATION":97.6388,"RA_OF_ASC_NODE":145.6972,"ARG_OF_PERICENTER":344.4497,"MEAN_ANOMALY":15.6291,"EPHEMERIS_TYPE":0,"CLASSIFICATION_TYPE":"U","NORAD_CAT_ID":66997,"ELEMENT_SET_NO":999,"REV_AT_EPOCH":1350,"BSTAR":0.00040225725,"MEAN_MOTION_DOT":5.752e-5,"MEAN_MOTION_DDOT":0}]
